{
  "norad_id": 68462,
  "name": "TRANSPORTER-16 OBJECT AY",
  "history": [
    {
      "epoch": "2026-04-14T03:17:50.430336Z",
      "apogee_km": 512.8913805682687,
      "perigee_km": 511.7737464050715,
      "latitude_deg": 4.988727458177708e-05,
      "longitude_deg": 171.78773664694046,
      "height_km": 515.9359638461092,
      "semi_major_axis_km": 6890.469563486669,
      "eccentricity": 8.11e-05,
      "inclination_deg": 97.4503,
      "raan_deg": 63.566,
      "arg_perigee_deg": 202.3868,
      "mean_anomaly_deg": 157.7331,
      "mean_motion_rev_day": 15.17852373
    }
  ]
}