TRANSPORTER-16 OBJECT AY
1 68462U 26067AY  26104.13738924  .00004307  00000+0  21606-3 0  9998
2 68462  97.4503  63.5660 0000811 202.3868 157.7331 15.17852373  2226
